{
  "norad_id": 53431,
  "name": "STARLINK-4548",
  "history": [
    {
      "epoch": "2026-03-28T04:46:20.148384Z",
      "apogee_km": 540.5038262799526,
      "perigee_km": 538.9608647011346,
      "latitude_deg": 5.293757629896776e-05,
      "longitude_deg": 123.43416220884085,
      "height_km": 540.5544494566194,
      "semi_major_axis_km": 6917.869345490543,
      "eccentricity": 0.00011152,
      "inclination_deg": 53.2196,
      "raan_deg": 20.6408,
      "arg_perigee_deg": 84.4828,
      "mean_anomaly_deg": 275.6292,
      "mean_motion_rev_day": 15.08843613
    },
    {
      "epoch": "2026-03-29T01:26:20.119776Z",
      "apogee_km": 540.5368555289015,
      "perigee_km": 538.8793398434964,
      "latitude_deg": 1.3498766374683824e-05,
      "longitude_deg": 168.71990229123892,
      "height_km": 540.5274485922967,
      "semi_major_axis_km": 6917.845097686199,
      "eccentricity": 0.0001198,
      "inclination_deg": 53.2194,
      "raan_deg": 16.7752,
      "arg_perigee_deg": 84.6827,
      "mean_anomaly_deg": 275.4302,
      "mean_motion_rev_day": 15.08851546
    }
  ]
}